{
  "type": "FeatureCollection",
  "features": [
    {
      "type": "Feature",
      "properties": {
        "norad_id": 36371,
        "name": "COSMOS 2251 DEB",
        "group": "cosmos-2251-debris",
        "lat": -49.211108884656674,
        "lon": 155.58549427061206,
        "alt_km": 666.9316946671051,
        "timestamp": "2025-12-05T19:30:25.964261+00:00",
        "meta_object_name": "COSMOS 2251 DEB",
        "meta_object_id": "1993-036AYY",
        "meta_epoch": "2025-12-05T06:40:48.082656",
        "meta_mean_motion": 14.70365383,
        "meta_eccentricity": 0.00103962,
        "meta_inclination": 74.0126,
        "meta_ra_of_asc_node": 176.0302,
        "meta_arg_of_pericenter": 214.7515,
        "meta_mean_anomaly": 145.2978,
        "meta_ephemeris_type": 0,
        "meta_classification_type": "U",
        "meta_norad_cat_id": 36371,
        "meta_element_set_no": 999,
        "meta_rev_at_epoch": 71335,
        "meta_bstar": 0.003178426,
        "meta_mean_motion_dot": 0.00019262,
        "meta_mean_motion_ddot": 0,
        "tle_line1": "1 36371U 93036AYY 25339.27833429  .00019262  00000+0  31784-2 0  9995",
        "tle_line2": "2 36371  74.0126 176.0302 0010396 214.7515 145.2978 14.70365383713350"
      },
      "geometry": {
        "type": "Point",
        "coordinates": [
          155.58549427061206,
          -49.211108884656674
        ]
      }
    },
    {
      "type": "Feature",
      "properties": {
        "norad_id": 36379,
        "name": "COSMOS 2251 DEB",
        "group": "cosmos-2251-debris",
        "lat": -63.28488851754975,
        "lon": 174.2888166758966,
        "alt_km": 807.7974807022438,
        "timestamp": "2025-12-05T19:30:25.964272+00:00",
        "meta_object_name": "COSMOS 2251 DEB",
        "meta_object_id": "1993-036AZG",
        "meta_epoch": "2025-12-04T05:40:14.039904",
        "meta_mean_motion": 14.36055986,
        "meta_eccentricity": 0.0044512,
        "meta_inclination": 74.012,
        "meta_ra_of_asc_node": 322.459,
        "meta_arg_of_pericenter": 93.9116,
        "meta_mean_anomaly": 287.0912,
        "meta_ephemeris_type": 0,
        "meta_classification_type": "U",
        "meta_norad_cat_id": 36379,
        "meta_element_set_no": 999,
        "meta_rev_at_epoch": 64706,
        "meta_bstar": 0.00051818,
        "meta_mean_motion_dot": 1.499e-05,
        "meta_mean_motion_ddot": 0,
        "tle_line1": "1 36379U 93036AZG 25338.23627361  .00001499  00000+0  51818-3 0  9998",
        "tle_line2": "2 36379  74.0120 322.4590 0044512  93.9116 287.0912 14.36055986647063"
      },
      "geometry": {
        "type": "Point",
        "coordinates": [
          174.2888166758966,
          -63.28488851754975
        ]
      }
    },
    {
      "type": "Feature",
      "properties": {
        "norad_id": 36385,
        "name": "COSMOS 2251 DEB",
        "group": "cosmos-2251-debris",
        "lat": 12.383559390410309,
        "lon": 171.70161961968475,
        "alt_km": 567.365666201229,
        "timestamp": "2025-12-05T19:30:25.964283+00:00",
        "meta_object_name": "COSMOS 2251 DEB",
        "meta_object_id": "1993-036AZN",
        "meta_epoch": "2025-12-02T19:41:49.805376",
        "meta_mean_motion": 14.72268382,
        "meta_eccentricity": 0.01411536,
        "meta_inclination": 73.969,
        "meta_ra_of_asc_node": 173.928,
        "meta_arg_of_pericenter": 350.6385,
        "meta_mean_anomaly": 9.2157,
        "meta_ephemeris_type": 0,
        "meta_classification_type": "U",
        "meta_norad_cat_id": 36385,
        "meta_element_set_no": 999,
        "meta_rev_at_epoch": 84956,
        "meta_bstar": 0.0016407111,
        "meta_mean_motion_dot": 0.00012116,
        "meta_mean_motion_ddot": 0,
        "tle_line1": "1 36385U 93036AZN 25336.82071534  .00012116  00000+0  16407-2 0  9995",
        "tle_line2": "2 36385  73.9690 173.9280 0141153 350.6385   9.2157 14.72268382849565"
      },
      "geometry": {
        "type": "Point",
        "coordinates": [
          171.70161961968475,
          12.383559390410309
        ]
      }
    },
    {
      "type": "Feature",
      "properties": {
        "norad_id": 36420,
        "name": "COSMOS 2251 DEB",
        "group": "cosmos-2251-debris",
        "lat": 66.82102771470936,
        "lon": 66.26510706342886,
        "alt_km": 761.7664485039604,
        "timestamp": "2025-12-05T19:30:25.964293+00:00",
        "meta_object_name": "COSMOS 2251 DEB",
        "meta_object_id": "1993-036AZT",
        "meta_epoch": "2025-12-03T05:28:58.353024",
        "meta_mean_motion": 14.3688527,
        "meta_eccentricity": 0.0017673,
        "meta_inclination": 74.0372,
        "meta_ra_of_asc_node": 292.9652,
        "meta_arg_of_pericenter": 23.016,
        "meta_mean_anomaly": 40.8577,
        "meta_ephemeris_type": 0,
        "meta_classification_type": "U",
        "meta_norad_cat_id": 36420,
        "meta_element_set_no": 999,
        "meta_rev_at_epoch": 84900,
        "meta_bstar": 0.00024398,
        "meta_mean_motion_dot": 6.97e-06,
        "meta_mean_motion_ddot": 0,
        "tle_line1": "1 36420U 93036AZT 25337.22845316  .00000697  00000+0  24398-3 0  9997",
        "tle_line2": "2 36420  74.0372 292.9652 0017673  23.0160  40.8577 14.36885270849007"
      },
      "geometry": {
        "type": "Point",
        "coordinates": [
          66.26510706342886,
          66.82102771470936
        ]
      }
    },
    {
      "type": "Feature",
      "properties": {
        "norad_id": 36430,
        "name": "COSMOS 2251 DEB",
        "group": "cosmos-2251-debris",
        "lat": -4.315120904896707,
        "lon": 119.86411847979748,
        "alt_km": 793.4203771519578,
        "timestamp": "2025-12-05T19:30:25.964304+00:00",
        "meta_object_name": "COSMOS 2251 DEB",
        "meta_object_id": "1993-036BAD",
        "meta_epoch": "2025-12-02T02:24:06.345216",
        "meta_mean_motion": 14.27749233,
        "meta_eccentricity": 0.00972219,
        "meta_inclination": 74.0032,
        "meta_ra_of_asc_node": 127.8413,
        "meta_arg_of_pericenter": 280.0414,
        "meta_mean_anomaly": 78.9776,
        "meta_ephemeris_type": 0,
        "meta_classification_type": "U",
        "meta_norad_cat_id": 36430,
        "meta_element_set_no": 999,
        "meta_rev_at_epoch": 64405,
        "meta_bstar": 0.00050130436,
        "meta_mean_motion_dot": 1.275e-05,
        "meta_mean_motion_ddot": 0,
        "tle_line1": "1 36430U 93036BAD 25336.10007344  .00001275  00000+0  50130-3 0  9991",
        "tle_line2": "2 36430  74.0032 127.8413 0097221 280.0414  78.9776 14.27749233644055"
      },
      "geometry": {
        "type": "Point",
        "coordinates": [
          119.86411847979748,
          -4.315120904896707
        ]
      }
    },
    {
      "type": "Feature",
      "properties": {
        "norad_id": 36437,
        "name": "COSMOS 2251 DEB",
        "group": "cosmos-2251-debris",
        "lat": 12.780552207444353,
        "lon": 51.268126181428904,
        "alt_km": 661.8568788512639,
        "timestamp": "2025-12-05T19:30:25.964314+00:00",
        "meta_object_name": "COSMOS 2251 DEB",
        "meta_object_id": "1993-036BAL",
        "meta_epoch": "2025-12-02T22:52:02.631936",
        "meta_mean_motion": 14.70397135,
        "meta_eccentricity": 0.00231807,
        "meta_inclination": 73.9435,
        "meta_ra_of_asc_node": 53.1,
        "meta_arg_of_pericenter": 284.4468,
        "meta_mean_anomaly": 75.413,
        "meta_ephemeris_type": 0,
        "meta_classification_type": "U",
        "meta_norad_cat_id": 36437,
        "meta_element_set_no": 999,
        "meta_rev_at_epoch": 65907,
        "meta_bstar": 0.0020592737,
        "meta_mean_motion_dot": 0.00012505,
        "meta_mean_motion_ddot": 0,
        "tle_line1": "1 36437U 93036BAL 25336.95280824  .00012505  00000+0  20593-2 0  9994",
        "tle_line2": "2 36437  73.9435  53.1000 0023180 284.4468  75.4130 14.70397135659072"
      },
      "geometry": {
        "type": "Point",
        "coordinates": [
          51.268126181428904,
          12.780552207444353
        ]
      }
    },
    {
      "type": "Feature",
      "properties": {
        "norad_id": 36439,
        "name": "COSMOS 2251 DEB",
        "group": "cosmos-2251-debris",
        "lat": 51.12162190221943,
        "lon": -153.1181567459149,
        "alt_km": 1143.002590811876,
        "timestamp": "2025-12-05T19:30:25.964325+00:00",
        "meta_object_name": "COSMOS 2251 DEB",
        "meta_object_id": "1993-036BAN",
        "meta_epoch": "2025-11-28T12:20:46.608576",
        "meta_mean_motion": 13.47759109,
        "meta_eccentricity": 0.04273078,
        "meta_inclination": 73.9677,
        "meta_ra_of_asc_node": 59.4166,
        "meta_arg_of_pericenter": 34.2696,
        "meta_mean_anomaly": 328.5204,
        "meta_ephemeris_type": 0,
        "meta_classification_type": "U",
        "meta_norad_cat_id": 36439,
        "meta_element_set_no": 999,
        "meta_rev_at_epoch": 58421,
        "meta_bstar": 0.00064226543,
        "meta_mean_motion_dot": 6.71e-06,
        "meta_mean_motion_ddot": 0,
        "tle_line1": "1 36439U 93036BAN 25332.51442834  .00000671  00000+0  64227-3 0  9999",
        "tle_line2": "2 36439  73.9677  59.4166 0427307  34.2696 328.5204 13.47759109584210"
      },
      "geometry": {
        "type": "Point",
        "coordinates": [
          -153.1181567459149,
          51.12162190221943
        ]
      }
    }
  ]
}